{
  "type": "FeatureCollection",
  "name": "Ahmedabad_Wards_Risk_Layer",
  "crs": { "type": "name", "properties": { "name": "urn:ogc:def:crs:OGC:1.3:CRS84" } },
  "features": [
    {
      "type": "Feature",
      "properties": { "ward_id": "AMD_01", "ward_name": "Navrangpura", "zone_name": "West Zone" },
      "geometry": {
        "type": "Polygon",
        "coordinates": [[[72.5450, 23.0280], [72.5580, 23.0295], [72.5710, 23.0310], [72.5730, 23.0420], [72.5680, 23.0530], [72.5520, 23.0510], [72.5440, 23.0410], [72.5450, 23.0280]]]
      }
    },
    {
      "type": "Feature",
      "properties": { "ward_id": "AMD_02", "ward_name": "Paldi", "zone_name": "West Zone" },
      "geometry": {
        "type": "Polygon",
        "coordinates": [[[72.5480, 23.0020], [72.5620, 23.0040], [72.5740, 23.0070], [72.5730, 23.0280], [72.5590, 23.0270], [72.5460, 23.0180], [72.5480, 23.0020]]]
      }
    },
    {
      "type": "Feature",
      "properties": { "ward_id": "AMD_03", "ward_name": "Sabarmati", "zone_name": "West Zone" },
      "geometry": {
        "type": "Polygon",
        "coordinates": [[[72.5580, 23.0680], [72.5780, 23.0720], [72.5980, 23.0760], [72.5960, 23.1040], [72.5750, 23.1020], [72.5560, 23.0880], [72.5580, 23.0680]]]
      }
    },
    {
      "type": "Feature",
      "properties": { "ward_id": "AMD_04", "ward_name": "Jamalpur", "zone_name": "Central Zone" },
      "geometry": {
        "type": "Polygon",
        "coordinates": [[[72.5740, 23.0080], [72.5860, 23.0090], [72.5970, 23.0120], [72.5960, 23.0310], [72.5840, 23.0290], [72.5730, 23.0220], [72.5740, 23.0080]]]
      }
    },
    {
      "type": "Feature",
      "properties": { "ward_id": "AMD_05", "ward_name": "Khadia", "zone_name": "Central Zone" },
      "geometry": {
        "type": "Polygon",
        "coordinates": [[[72.5840, 23.0180], [72.5960, 23.0190], [72.6070, 23.0220], [72.6060, 23.0420], [72.5940, 23.0390], [72.5830, 23.0310], [72.5840, 23.0180]]]
      }
    },
    {
      "type": "Feature",
      "properties": { "ward_id": "AMD_06", "ward_name": "Shahpur", "zone_name": "Central Zone" },
      "geometry": {
        "type": "Polygon",
        "coordinates": [[[72.5730, 23.0320], [72.5850, 23.0340], [72.5970, 23.0370], [72.5950, 23.0580], [72.5820, 23.0560], [72.5720, 23.0460], [72.5730, 23.0320]]]
      }
    },
    {
      "type": "Feature",
      "properties": { "ward_id": "AMD_07", "ward_name": "Maninagar", "zone_name": "South Zone" },
      "geometry": {
        "type": "Polygon",
        "coordinates": [[[72.5920, 22.9860], [72.6080, 22.9880], [72.6240, 22.9920], [72.6220, 23.0180], [72.6060, 23.0150], [72.5910, 23.0040], [72.5920, 22.9860]]]
      }
    },
    {
      "type": "Feature",
      "properties": { "ward_id": "AMD_08", "ward_name": "Vatva", "zone_name": "South Zone (Industrial)" },
      "geometry": {
        "type": "Polygon",
        "coordinates": [[[72.6100, 22.9420], [72.6350, 22.9460], [72.6580, 22.9520], [72.6560, 22.9940], [72.6320, 22.9890], [72.6080, 22.9680], [72.6100, 22.9420]]]
      }
    },
    {
      "type": "Feature",
      "properties": { "ward_id": "AMD_09", "ward_name": "Danilimda", "zone_name": "South Zone" },
      "geometry": {
        "type": "Polygon",
        "coordinates": [[[72.5720, 22.9760], [72.5880, 22.9780], [72.6030, 22.9820], [72.6010, 23.0120], [72.5860, 23.0090], [72.5710, 22.9950], [72.5720, 22.9760]]]
      }
    },
    {
      "type": "Feature",
      "properties": { "ward_id": "AMD_10", "ward_name": "Naroda", "zone_name": "East Zone (Industrial)" },
      "geometry": {
        "type": "Polygon",
        "coordinates": [[[72.6300, 23.0540], [72.6550, 23.0580], [72.6780, 23.0640], [72.6760, 23.1040], [72.6510, 23.0980], [72.6280, 23.0780], [72.6300, 23.0540]]]
      }
    },
    {
      "type": "Feature",
      "properties": { "ward_id": "AMD_11", "ward_name": "Bapunagar", "zone_name": "East Zone" },
      "geometry": {
        "type": "Polygon",
        "coordinates": [[[72.6180, 23.0260], [72.6320, 23.0280], [72.6480, 23.0320], [72.6460, 23.0580], [72.6310, 23.0550], [72.6160, 23.0420], [72.6180, 23.0260]]]
      }
    },
    {
      "type": "Feature",
      "properties": { "ward_id": "AMD_12", "ward_name": "Gomtipur", "zone_name": "East Zone" },
      "geometry": {
        "type": "Polygon",
        "coordinates": [[[72.6060, 23.0060], [72.6210, 23.0080], [72.6380, 23.0120], [72.6360, 23.0380], [72.6190, 23.0350], [72.6040, 23.0220], [72.6060, 23.0060]]]
      }
    },
    {
      "type": "Feature",
      "properties": { "ward_id": "AMD_13", "ward_name": "Odhav", "zone_name": "East Zone (Industrial)" },
      "geometry": {
        "type": "Polygon",
        "coordinates": [[[72.6400, 22.9940], [72.6650, 22.9980], [72.6880, 23.0040], [72.6860, 23.0480], [72.6610, 23.0440], [72.6380, 23.0220], [72.6400, 22.9940]]]
      }
    },
    {
      "type": "Feature",
      "properties": { "ward_id": "AMD_14", "ward_name": "Chandkheda", "zone_name": "North West Zone" },
      "geometry": {
        "type": "Polygon",
        "coordinates": [[[72.5550, 23.0950], [72.5780, 23.0980], [72.6040, 23.1040], [72.6010, 23.1420], [72.5760, 23.1380], [72.5520, 23.1180], [72.5550, 23.0950]]]
      }
    },
    {
      "type": "Feature",
      "properties": { "ward_id": "AMD_15", "ward_name": "Ghatlodia", "zone_name": "North West Zone" },
      "geometry": {
        "type": "Polygon",
        "coordinates": [[[72.5200, 23.0540], [72.5420, 23.0560], [72.5630, 23.0600], [72.5610, 23.0940], [72.5390, 23.0910], [72.5180, 23.0740], [72.5200, 23.0540]]]
      }
    },
    {
      "type": "Feature",
      "properties": { "ward_id": "AMD_16", "ward_name": "Bodakdev", "zone_name": "New West Zone" },
      "geometry": {
        "type": "Polygon",
        "coordinates": [[[72.4950, 23.0240], [72.5160, 23.0260], [72.5380, 23.0300], [72.5360, 23.0640], [72.5140, 23.0610], [72.4920, 23.0440], [72.4950, 23.0240]]]
      }
    },
    {
      "type": "Feature",
      "properties": { "ward_id": "AMD_17", "ward_name": "Thaltej", "zone_name": "New West Zone" },
      "geometry": {
        "type": "Polygon",
        "coordinates": [[[72.4850, 23.0480], [72.5080, 23.0510], [72.5280, 23.0550], [72.5260, 23.0940], [72.5040, 23.0910], [72.4820, 23.0720], [72.4850, 23.0480]]]
      }
    },
    {
      "type": "Feature",
      "properties": { "ward_id": "AMD_18", "ward_name": "Jodhpur", "zone_name": "New West Zone" },
      "geometry": {
        "type": "Polygon",
        "coordinates": [[[72.5050, 23.0000], [72.5240, 23.0020], [72.5440, 23.0060], [72.5420, 23.0380], [72.5220, 23.0350], [72.5020, 23.0180], [72.5050, 23.0000]]]
      }
    },
    {
      "type": "Feature",
      "properties": { "ward_id": "AMD_19", "ward_name": "Sarkhej", "zone_name": "South West Zone" },
      "geometry": {
        "type": "Polygon",
        "coordinates": [[[72.4800, 22.9640], [72.5050, 22.9680], [72.5280, 22.9720], [72.5260, 23.0100], [72.5010, 23.0060], [72.4780, 22.9860], [72.4800, 22.9640]]]
      }
    },
    {
      "type": "Feature",
      "properties": { "ward_id": "AMD_20", "ward_name": "Vejalpur", "zone_name": "South West Zone" },
      "geometry": {
        "type": "Polygon",
        "coordinates": [[[72.5100, 22.9840], [72.5290, 22.9860], [72.5480, 22.9900], [72.5460, 23.0240], [72.5270, 23.0210], [72.5080, 23.0020], [72.5100, 22.9840]]]
      }
    }
  ]
}
